HULIANWANG DIGUI 12F    
1 66000U 25231F   25307.95235711  .00000036  00000+0  11616-3 0  9991
2 66000  50.0057 280.7186 0005561 334.7899  25.2734 14.04998713  2666
HULIANWANG DIGUI 12G    
1 66001U 25231G   25307.95659233  .00000038  00000+0  11964-3 0  9999
2 66001  50.0024 280.7334 0006721 347.4885  12.5851 14.03866078  2667
HULIANWANG DIGUI 12H    
1 66002U 25231H   25307.95788687  .00000033  00000+0  11670-3 0  9995
2 66002  50.0063 280.7502 0007750 338.3038  21.7538 14.03811071  2667
HULIANWANG DIGUI 12J    
1 66003U 25231J   25307.95344098  .00000044  00000+0  12302-3 0  9995
2 66003  50.0037 280.7206 0005539 336.8948  23.1707 14.03906381  2669
CZ-8A R/B               
1 66004U 25231K   25307.90777527 -.00000064  00000+0  36094-4 0  9996
2 66004  50.0035 277.6993 0116681 150.4030 210.3556 14.30033274  2708
STARLINK-34849          
1 66005U 25232A   25307.91670139 -.01982355  00000+0 -34487-1 0  9995
2 66005  53.1591 330.8014 0001197  91.1748 186.6316 15.53324393  3305
STARLINK-35336          
1 66006U 25232B   25307.91670139 -.01980615  00000+0 -34454-1 0  9997
2 66006  53.1591 330.7965 0001295  89.7955 189.9295 15.53322643  3311
STARLINK-35196          
1 66007U 25232C   25307.91670139 -.01948134  00000+0 -33864-1 0  9992
2 66007  53.1590 330.7934 0001297  95.9119 185.7555 15.53291112  3319
STARLINK-35236          
1 66008U 25232D   25307.91670139 -.01974450  00000+0 -34298-1 0  9995
2 66008  53.1586 330.7889 0001125  78.9711 204.5998 15.53353175  3312
STARLINK-35276          
1 66009U 25232E   25307.91670139 -.01980579  00000+0 -34456-1 0  9991
2 66009  53.1588 330.7852 0001292  99.1179 186.3615 15.53320594  3304
STARLINK-35297          
1 66010U 25232F   25307.91670139 -.01976352  00000+0 -34379-1 0  9991
2 66010  53.1591 330.7814 0001142  89.4731 197.9230 15.53317873  3316
STARLINK-35256          
1 66011U 25232G   25307.91670139 -.01970039  00000+0 -34257-1 0  9993
2 66011  53.1593 330.7650 0001429  94.8549 200.2100 15.53314503  3313
STARLINK-35293          
1 66012U 25232H   25307.91670139 -.01979495  00000+0 -34434-1 0  9996
2 66012  53.1595 330.7762 0001334  92.5656 196.7463 15.53320533  3310
STARLINK-35307          
1 66013U 25232J   25307.91670139 -.01976400  00000+0 -34375-1 0  9994
2 66013  53.1592 330.7733 0001207  84.7838 206.4405 15.53321100  3248
STARLINK-35395          
1 66014U 25232K   25307.91670139 -.01969858  00000+0 -34254-1 0  9990
2 66014  53.1593 330.7690 0001211  92.5715 200.5730 15.53316731  3305
STARLINK-34622          
1 66015U 25232L   25307.91670139 -.02026569  00000+0 -35327-1 0  9997
2 66015  53.1672 330.7530 0001063  84.1109 216.6958 15.53341760  3205
STARLINK-35243          
1 66016U 25232M   25307.91670139 -.01970274  00000+0 -34260-1 0  9993
2 66016  53.1590 330.7573 0001314  97.1994 201.6957 15.53316920  3312
STARLINK-35398          
1 66017U 25232N   25307.91670139 -.01976963  00000+0 -34387-1 0  9995
2 66017  53.1593 330.7456 0001186  89.5185 215.1257 15.53320293  3232
STARLINK-35376          
1 66018U 25232P   25307.91670139 -.01972455  00000+0 -34301-1 0  9994
2 66018  53.1593 330.7491 0001228  96.3653 206.3618 15.53318968  3313
STARLINK-35382          
1 66019U 25232Q   25307.91670139 -.01972145  00000+0 -34295-1 0  9993
2 66019  53.1592 330.7608 0001222  97.0715 199.9055 15.53318625  3316
STARLINK-35430          
1 66020U 25232R   25307.91670139 -.01970145  00000+0 -34259-1 0  9993
2 66020  53.1598 330.7371 0001368  92.9267 215.5548 15.53315063  3302
STARLINK-35432          
1 66021U 25232S   25307.91670139 -.01974053  00000+0 -34334-1 0  9990
2 66021  53.1591 330.7412 0001113  91.2290 215.3329 15.53318618  3234
STARLINK-35340          
1 66022U 25232T   25307.91670139 -.01976633  00000+0 -34381-1 0  9999
2 66022  53.1597 330.7323 0001326  91.2390 219.1577 15.53318963  3307
STARLINK-35394          
1 66023U 25232U   25307.91670139 -.01975216  00000+0 -34356-1 0  9998
2 66023  53.1597 330.7280 0001156  87.6570 224.6561 15.53318466  3302
STARLINK-35410          
1 66024U 25232V   25307.91670139 -.01974462  00000+0 -34341-1 0  9995
2 66024  53.1594 330.7204 0001193  92.9493 223.1973 15.53318648  3303
STARLINK-35280          
1 66025U 25232W   25307.91670139 -.01975423  00000+0 -34362-1 0  9997
2 66025  53.1595 330.7239 0001128  85.3899 228.8428 15.53316821  3248
STARLINK-34812          
1 66026U 25232X   25307.91670139 -.01970685  00000+0 -34271-1 0  9992
2 66026  53.1588 330.7171 0001180  89.1201 228.9445 15.53316075  3255
STARLINK-35341          
1 66027U 25232Y   25307.91670139 -.01987964  00000+0 -23794-1 0  9999
2 66027  53.1589 330.5432 0001119  73.7924 329.9157 15.63673764  3308
STARLINK-35339          
1 66028U 25232Z   25307.91670139 -.01986252  00000+0 -23770-1 0  9993
2 66028  53.1588 330.5394 0001170  75.7492 329.8751 15.63673171  3248
STARLINK-35399          
1 66029U 25232AA  25307.91670139 -.01983800  00000+0 -23738-1 0  9994
2 66029  53.1587 330.5358 0001095  78.3318 329.2086 15.63672636  3240
STARLINK-35431          
1 66030U 25232AB  25307.91670139 -.01979344  00000+0 -23679-1 0  9998
2 66030  53.1587 330.5308 0001263  71.9900 337.4666 15.63669694  3245
STARLINK-35326          
1 66031U 25232AC  25307.91670139 -.01981759  00000+0 -23710-1 0  9998
2 66031  53.1584 330.5278 0001218  75.0015 336.3700 15.63672271  3300
STARLINK-35311          
1 66032U 25232AD  25307.91670139 -.01979989  00000+0 -23689-1 0  9996
2 66032  53.1587 330.5232 0001139  72.6304 340.6616 15.63669659  3300
QIANFAN-91              
1 66033U 25233A   25307.88465195  .00000693  00000+0  28457-3 0  9992
2 66033  88.9950  66.5041 0016364 154.0497 206.1521 14.25914680  2505
QIANFAN-92              
1 66034U 25233B   25307.88400523  .00000683  00000+0  28019-3 0  9990
2 66034  88.9949  66.5038 0015955 156.5418 203.6506 14.25996474  2501
QIANFAN-93              
1 66035U 25233C   25307.88295374  .00000691  00000+0  28284-3 0  9990
2 66035  88.9949  66.5038 0015275 155.8574 204.3339 14.26080061  2501
QIANFAN-94              
1 66036U 25233D   25307.88269951  .00000696  00000+0  28501-3 0  9990
2 66036  88.9950  66.5038 0015346 155.5280 204.6645 14.26105262  2508
QIANFAN-95              
1 66037U 25233E   25307.88239922  .00000700  00000+0  28630-3 0  9995
2 66037  88.9950  66.5037 0015306 155.9257 204.2655 14.26150466  2505
QIANFAN-96              
1 66038U 25233F   25307.88214331  .00000678  00000+0  27704-3 0  9998
2 66038  88.9950  66.5036 0015938 157.8680 202.3205 14.26154306  2504
QIANFAN-97              
1 66039U 25233G   25307.88205218  .00000686  00000+0  28022-3 0  9996
2 66039  88.9950  66.5036 0015507 157.2996 202.8886 14.26160245  2500
QIANFAN-98              
1 66040U 25233H   25307.88181808  .00000680  00000+0  27773-3 0  9992
2 66040  88.9950  66.5037 0015142 156.0360 204.1541 14.26181701  2503
QIANFAN-99              
1 66041U 25233J   25307.88169809  .00000687  00000+0  28050-3 0  9996
2 66041  88.9949  66.5035 0015283 155.1483 205.0450 14.26197184  2503
QIANFAN-100             
1 66042U 25233K   25307.88163471  .00000676  00000+0  27594-3 0  9996
2 66042  88.9950  66.5036 0015734 156.8462 203.3444 14.26212772  2508
QIANFAN-101             
1 66043U 25233L   25307.87949369  .00000455  00000+0  18215-3 0  9999
2 66043  88.9950  66.5032 0015666 155.0925 205.1028 14.26634100  2505
QIANFAN-102             
1 66044U 25233M   25307.88153223  .00000698  00000+0  28492-3 0  9994
2 66044  88.9949  66.5035 0016102 156.9453 203.2467 14.26216926  2507
QIANFAN-103             
1 66045U 25233N   25307.95141786  .00000697  00000+0  28454-3 0  9991
2 66045  88.9950  66.4956 0015500 155.4894 204.7040 14.26246240  2511
QIANFAN-104             
1 66046U 25233P   25307.88105708  .00000705  00000+0  28788-3 0  9998
2 66046  88.9950  66.5036 0015472 157.9756 202.2106 14.26266904  2508
QIANFAN-105             
1 66047U 25233Q   25307.88073102  .00000704  00000+0  28675-3 0  9995
2 66047  88.9949  66.5033 0015646 158.1134 202.0731 14.26325309  2507
QIANFAN-106             
1 66048U 25233R   25307.88074023  .00000683  00000+0  27840-3 0  9998
2 66048  88.9950  66.5035 0015536 157.7848 202.4022 14.26308653  2507
QIANFAN-107             
1 66049U 25233S   25307.88056445  .00000688  00000+0  28004-3 0  9995
2 66049  88.9949  66.5034 0016328 155.9521 204.2439 14.26337525  2505
QIANFAN-108             
1 66050U 25233T   25307.88031694  .00000672  00000+0  27355-3 0  9997
2 66050  88.9949  66.5033 0016284 157.6435 202.5471 14.26350561  2502
CZ-6A R/B               
1 66051U 25233U   25307.85746649  .00000386  00000+0  77607-4 0  9996
2 66051  89.0288  66.4377 0085873  59.7473 301.2203 14.57012050  2552
2025-234A               
1 66053U 25234A   25307.90625108  .00031215  00000+0  13488-2 0  9991
2 66053  97.4625  13.4520 0014414 230.2233 129.7734 15.22329713  2403
2025-234B               
1 66054U 25234B   25307.91357846  .00007912  00000+0  35726-3 0  9991
2 66054  97.5051  13.5245 0013973 222.2133 137.8028 15.21166250  2402
2025-234C               
1 66055U 25234C   25307.91241421  .00006211  00000+0  27973-3 0  9999
2 66055  97.4574  13.4341 0014627 224.3910 135.6154 15.21331351  2403
2025-234D               
1 66056U 25234D   25307.91106546  .00021843  00000+0  96350-3 0  9991
2 66056  97.4554  13.4317 0014637 223.3271 136.6815 15.21698453  2397
2025-234E               
1 66057U 25234E   25307.93784473  .00381906  00000+0  12289-1 0  9991
2 66057  97.4873  13.6195 0015273 233.7276 126.2554 15.30507757  2419
STARLINK-35552          
1 66058U 25235A   25307.91670139 -.01819979  00000+0 -15268-1 0  9993
2 66058  53.1543 113.2183 0000911  80.8145 236.0500 15.72515444  3630
STARLINK-35560          
1 66059U 25235B   25307.91670139 -.01808759  00000+0 -15166-1 0  9995
2 66059  53.1543 113.2146 0001051  77.2586 241.5299 15.72503661  3639
